{"type": "FeatureCollection", "features": [ {"type": "Feature", "properties": {"norad_id": 37499, "name": "COSMOS 2251 DEB", "group": "cosmos-2251-debris", "lat": 38.842981280340396, "lon": -8.01007471311903, "alt_km": 755.7672265739202, "timestamp": "2025-12-03T17:47:51.116312+00:00", "meta": {"OBJECT_NAME": "COSMOS 2251 DEB", "OBJECT_ID": "1993-036BMC", "EPOCH": "2025-12-02T18:10:26.857920", "MEAN_MOTION": 14.34326576, "ECCENTRICITY": 0.00266176, "INCLINATION": 74.0374, "RA_OF_ASC_NODE": 340.4656, "ARG_OF_PERICENTER": 59.6085, "MEAN_ANOMALY": 300.7692, "EPHEMERIS_TYPE": 0, "CLASSIFICATION_TYPE": "U", "NORAD_CAT_ID": 37499, "ELEMENT_SET_NO": 999, "REV_AT_EPOCH": 85006, "BSTAR": 0.00020272386, "MEAN_MOTION_DOT": 5.46e-06, "MEAN_MOTION_DDOT": 0}, "tle": {"line1": "1 37499U 93036BMC 25336.75725530  .00000546  00000+0  20272-3 0  9996", "line2": "2 37499  74.0374 340.4656 0026617  59.6085 300.7692 14.34326576850069"}}, "geometry": {"type": "Point", "coordinates": [-8.01007471311903, 38.842981280340396]}}, {"type": "Feature", "properties": {"norad_id": 37528, "name": "COSMOS 2251 DEB", "group": "cosmos-2251-debris", "lat": 32.244073034965254, "lon": 149.4489881865037, "alt_km": 725.9204007715662, "timestamp": "2025-12-03T17:47:51.116323+00:00", "meta": {"OBJECT_NAME": "COSMOS 2251 DEB", "OBJECT_ID": "1993-036BNH", "EPOCH": "2025-12-03T04:24:00.466272", "MEAN_MOTION": 14.5046203, "ECCENTRICITY": 0.0020968, "INCLINATION": 74.0362, "RA_OF_ASC_NODE": 140.0947, "ARG_OF_PERICENTER": 289.16, "MEAN_ANOMALY": 70.7291, "EPHEMERIS_TYPE": 0, "CLASSIFICATION_TYPE": "U", "NORAD_CAT_ID": 37528, "ELEMENT_SET_NO": 999, "REV_AT_EPOCH": 85792, "BSTAR": 0.00063708, "MEAN_MOTION_DOT": 2.471e-05, "MEAN_MOTION_DDOT": 0}, "tle": {"line1": "1 37528U 93036BNH 25337.18333873  .00002471  00000+0  63708-3 0  9992", "line2": "2 37528  74.0362 140.0947 0020968 289.1600  70.7291 14.50462030857927"}}, "geometry": {"type": "Point", "coordinates": [149.4489881865037, 32.244073034965254]}}, {"type": "Feature", "properties": {"norad_id": 37530, "name": "COSMOS 2251 DEB", "group": "cosmos-2251-debris", "lat": 71.00430560197161, "lon": 113.86512775598773, "alt_km": 756.6173512191444, "timestamp": "2025-12-03T17:47:51.116335+00:00", "meta": {"OBJECT_NAME": "COSMOS 2251 DEB", "OBJECT_ID": "1993-036BNK", "EPOCH": "2025-11-30T19:50:14.646624", "MEAN_MOTION": 14.34478642, "ECCENTRICITY": 0.00255427, "INCLINATION": 74.0356, "RA_OF_ASC_NODE": 355.4602, "ARG_OF_PERICENTER": 61.4891, "MEAN_ANOMALY": 111.2815, "EPHEMERIS_TYPE": 0, "CLASSIFICATION_TYPE": "U", "NORAD_CAT_ID": 37530, "ELEMENT_SET_NO": 999, "REV_AT_EPOCH": 85061, "BSTAR": 0.00021143929, "MEAN_MOTION_DOT": 5.72e-06, "MEAN_MOTION_DDOT": 0}, "tle": {"line1": "1 37530U 93036BNK 25334.82655841  .00000572  00000+0  21144-3 0  9993", "line2": "2 37530  74.0356 355.4602 0025542  61.4891 111.2815 14.34478642850619"}}, "geometry": {"type": "Point", "coordinates": [113.86512775598773, 71.00430560197161]}}, {"type": "Feature", "properties": {"norad_id": 37532, "name": "COSMOS 2251 DEB", "group": "cosmos-2251-debris", "lat": -14.826069263910913, "lon": -131.94584725385752, "alt_km": 743.9774849091937, "timestamp": "2025-12-03T17:47:51.116346+00:00", "meta": {"OBJECT_NAME": "COSMOS 2251 DEB", "OBJECT_ID": "1993-036BNM", "EPOCH": "2025-12-02T23:37:55.500096", "MEAN_MOTION": 14.4238225, "ECCENTRICITY": 0.00156756, "INCLINATION": 74.0505, "RA_OF_ASC_NODE": 233.7976, "ARG_OF_PERICENTER": 335.7247, "MEAN_ANOMALY": 40.2834, "EPHEMERIS_TYPE": 0, "CLASSIFICATION_TYPE": "U", "NORAD_CAT_ID": 37532, "ELEMENT_SET_NO": 999, "REV_AT_EPOCH": 84775, "BSTAR": 0.00031017071, "MEAN_MOTION_DOT": 1e-05, "MEAN_MOTION_DDOT": 0}, "tle": {"line1": "1 37532U 93036BNM 25336.98467014  .00001000  00000+0  31017-3 0  9994", "line2": "2 37532  74.0505 233.7976 0015675 335.7247  40.2834 14.42382250847758"}}, "geometry": {"type": "Point", "coordinates": [-131.94584725385752, -14.826069263910913]}}, {"type": "Feature", "properties": {"norad_id": 37533, "name": "COSMOS 2251 DEB", "group": "cosmos-2251-debris", "lat": -21.5277461104568, "lon": -158.8040122378914, "alt_km": 818.886679708301, "timestamp": "2025-12-03T17:47:51.116358+00:00", "meta": {"OBJECT_NAME": "COSMOS 2251 DEB", "OBJECT_ID": "1993-036BNN", "EPOCH": "2025-12-03T09:24:05.948064", "MEAN_MOTION": 14.12090426, "ECCENTRICITY": 0.0158489, "INCLINATION": 74.0692, "RA_OF_ASC_NODE": 208.2815, "ARG_OF_PERICENTER": 267.0153, "MEAN_ANOMALY": 91.2841, "EPHEMERIS_TYPE": 0, "CLASSIFICATION_TYPE": "U", "NORAD_CAT_ID": 37533, "ELEMENT_SET_NO": 999, "REV_AT_EPOCH": 62789, "BSTAR": 0.0018532, "MEAN_MOTION_DOT": 3.801e-05, "MEAN_MOTION_DDOT": 0}, "tle": {"line1": "1 37533U 93036BNN 25337.39173551  .00003801  00000+0  18532-2 0  9998", "line2": "2 37533  74.0692 208.2815 0158489 267.0153  91.2841 14.12090426627892"}}, "geometry": {"type": "Point", "coordinates": [-158.8040122378914, -21.5277461104568]}}, {"type": "Feature", "properties": {"norad_id": 37535, "name": "COSMOS 2251 DEB", "group": "cosmos-2251-debris", "lat": -19.479707432252773, "lon": -83.5431228112662, "alt_km": 686.052839145178, "timestamp": "2025-12-03T17:47:51.116369+00:00", "meta": {"OBJECT_NAME": "COSMOS 2251 DEB", "OBJECT_ID": "1993-036BNQ", "EPOCH": "2025-12-02T18:23:39.005088", "MEAN_MOTION": 14.5832597, "ECCENTRICITY": 0.00282789, "INCLINATION": 74.0242, "RA_OF_ASC_NODE": 92.4973, "ARG_OF_PERICENTER": 232.6434, "MEAN_ANOMALY": 250.324, "EPHEMERIS_TYPE": 0, "CLASSIFICATION_TYPE": "U", "NORAD_CAT_ID": 37535, "ELEMENT_SET_NO": 999, "REV_AT_EPOCH": 85179, "BSTAR": 0.0012367848, "MEAN_MOTION_DOT": 5.729e-05, "MEAN_MOTION_DDOT": 0}, "tle": {"line1": "1 37535U 93036BNQ 25336.76642367  .00005729  00000+0  12368-2 0  9998", "line2": "2 37535  74.0242  92.4973 0028278 232.6434 250.3240 14.58325970851799"}}, "geometry": {"type": "Point", "coordinates": [-83.5431228112662, -19.479707432252773]}}, {"type": "Feature", "properties": {"norad_id": 37537, "name": "COSMOS 2251 DEB", "group": "cosmos-2251-debris", "lat": -11.894188791829315, "lon": -81.75150887949445, "alt_km": 762.4645438172001, "timestamp": "2025-12-03T17:47:51.116379+00:00", "meta": {"OBJECT_NAME": "COSMOS 2251 DEB", "OBJECT_ID": "1993-036BNS", "EPOCH": "2025-12-03T02:49:20.436096", "MEAN_MOTION": 14.37467313, "ECCENTRICITY": 0.00499683, "INCLINATION": 74.0121, "RA_OF_ASC_NODE": 282.86, "ARG_OF_PERICENTER": 65.6493, "MEAN_ANOMALY": 294.9866, "EPHEMERIS_TYPE": 0, "CLASSIFICATION_TYPE": "U", "NORAD_CAT_ID": 37537, "ELEMENT_SET_NO": 999, "REV_AT_EPOCH": 84895, "BSTAR": 0.00030991104, "MEAN_MOTION_DOT": 9.15e-06, "MEAN_MOTION_DDOT": 0}, "tle": {"line1": "1 37537U 93036BNS 25337.11759764  .00000915  00000+0  30991-3 0  9995", "line2": "2 37537  74.0121 282.8600 0049968  65.6493 294.9866 14.37467313848954"}}, "geometry": {"type": "Point", "coordinates": [-81.75150887949445, -11.894188791829315]}}, {"type": "Feature", "properties": {"norad_id": 37546, "name": "COSMOS 2251 DEB", "group": "cosmos-2251-debris", "lat": 53.26006835450915, "lon": -86.82429494764924, "alt_km": 619.8388665408202, "timestamp": "2025-12-03T17:47:51.116391+00:00", "meta": {"OBJECT_NAME": "COSMOS 2251 DEB", "OBJECT_ID": "1993-036BPB", "EPOCH": "2025-12-03T09:07:46.153056", "MEAN_MOTION": 14.79857729, "ECCENTRICITY": 0.0006823, "INCLINATION": 74.0211, "RA_OF_ASC_NODE": 116.4605, "ARG_OF_PERICENTER": 143.2532, "MEAN_ANOMALY": 216.9114, "EPHEMERIS_TYPE": 0, "CLASSIFICATION_TYPE": "U", "NORAD_CAT_ID": 37546, "ELEMENT_SET_NO": 999, "REV_AT_EPOCH": 65749, "BSTAR": 0.0038864, "MEAN_MOTION_DOT": 0.00029412, "MEAN_MOTION_DDOT": 0}, "tle": {"line1": "1 37546U 93036BPB 25337.38039529  .00029412  00000+0  38864-2 0  9993", "line2": "2 37546  74.0211 116.4605 0006823 143.2532 216.9114 14.79857729657498"}}, "geometry": {"type": "Point", "coordinates": [-86.82429494764924, 53.26006835450915]}}, {"type": "Feature", "properties": {"norad_id": 37959, "name": "COSMOS 2251 DEB", "group": "cosmos-2251-debris", "lat": -43.54754573499078, "lon": 58.274378218929165, "alt_km": 709.7067920793661, "timestamp": "2025-12-03T17:47:51.116402+00:00", "meta": {"OBJECT_NAME": "COSMOS 2251 DEB", "OBJECT_ID": "1993-036BPJ", "EPOCH": "2025-12-03T06:37:43.731840", "MEAN_MOTION": 14.58029421, "ECCENTRICITY": 0.0058457, "INCLINATION": 74.0113, "RA_OF_ASC_NODE": 74.9761, "ARG_OF_PERICENTER": 219.613, "MEAN_ANOMALY": 172.3716, "EPHEMERIS_TYPE": 0, "CLASSIFICATION_TYPE": "U", "NORAD_CAT_ID": 37959, "ELEMENT_SET_NO": 999, "REV_AT_EPOCH": 79989, "BSTAR": 0.0012228, "MEAN_MOTION_DOT": 5.729e-05, "MEAN_MOTION_DDOT": 0}, "tle": {"line1": "1 37959U 93036BPJ 25337.27620060  .00005729  00000+0  12228-2 0  9996", "line2": "2 37959  74.0113  74.9761 0058457 219.6130 172.3716 14.58029421799891"}}, "geometry": {"type": "Point", "coordinates": [58.274378218929165, -43.54754573499078]}}, {"type": "Feature", "properties": {"norad_id": 37960, "name": "COSMOS 2251 DEB", "group": "cosmos-2251-debris", "lat": 1.2729628256321455, "lon": -156.9741729401198, "alt_km": 1001.3909192821111, "timestamp": "2025-12-03T17:47:51.116413+00:00", "meta": {"OBJECT_NAME": "COSMOS 2251 DEB", "OBJECT_ID": "1993-036BPK", "EPOCH": "2025-12-03T00:44:10.802976", "MEAN_MOTION": 14.07807809, "ECCENTRICITY": 0.02496601, "INCLINATION": 74.0591, "RA_OF_ASC_NODE": 203.9073, "ARG_OF_PERICENTER": 224.9718, "MEAN_ANOMALY": 133.0963, "EPHEMERIS_TYPE": 0, "CLASSIFICATION_TYPE": "U", "NORAD_CAT_ID": 37960, "ELEMENT_SET_NO": 999, "REV_AT_EPOCH": 77269, "BSTAR": 0.0012185346, "MEAN_MOTION_DOT": 2.721e-05, "MEAN_MOTION_DDOT": 0}, "tle": {"line1": "1 37960U 93036BPK 25337.03068059  .00002721  00000+0  12185-2 0  9997", "line2": "2 37960  74.0591 203.9073 0249660 224.9718 133.0963 14.07807809772697"}}, "geometry": {"type": "Point", "coordinates": [-156.9741729401198, 1.2729628256321455]}}]}